[{"OBJECT_NAME":"STARLINK-30069","OBJECT_ID":"2023-079M","EPOCH":"2026-03-08T11:34:15.947328","MEAN_MOTION":15.26726881,"ECCENTRICITY":4.69e-5,"INCLINATION":42.9986,"RA_OF_ASC_NODE":110.4464,"ARG_OF_PERICENTER":272.6695,"MEAN_ANOMALY":87.4103,"EPHEMERIS_TYPE":0,"CLASSIFICATION_TYPE":"U","NORAD_CAT_ID":56834,"ELEMENT_SET_NO":999,"REV_AT_EPOCH":15274,"BSTAR":-8.0472e-5,"MEAN_MOTION_DOT":-2.416e-5,"MEAN_MOTION_DDOT":0},{"OBJECT_NAME":"STARLINK-32484","OBJECT_ID":"2024-224X","EPOCH":"2026-03-09T22:20:38.389632","MEAN_MOTION":15.27613951,"ECCENTRICITY":6.43e-5,"INCLINATION":42.9965,"RA_OF_ASC_NODE":157.0185,"ARG_OF_PERICENTER":325.6445,"MEAN_ANOMALY":34.4365,"EPHEMERIS_TYPE":0,"CLASSIFICATION_TYPE":"U","NORAD_CAT_ID":62160,"ELEMENT_SET_NO":999,"REV_AT_EPOCH":7251,"BSTAR":0.0010017943,"MEAN_MOTION_DOT":0.00027436,"MEAN_MOTION_DDOT":0}]
